[{"OBJECT_NAME":"STARLINK-35017","OBJECT_ID":"2025-184V","EPOCH":"2025-12-15T17:56:00.506976","MEAN_MOTION":15.0564832,"ECCENTRICITY":0.00019666,"INCLINATION":97.6067,"RA_OF_ASC_NODE":39.9698,"ARG_OF_PERICENTER":86.2018,"MEAN_ANOMALY":273.9434,"EPHEMERIS_TYPE":0,"CLASSIFICATION_TYPE":"U","NORAD_CAT_ID":65292,"ELEMENT_SET_NO":999,"REV_AT_EPOCH":1862,"BSTAR":0.00051273457,"MEAN_MOTION_DOT":7.345e-5,"MEAN_MOTION_DDOT":0},{"OBJECT_NAME":"STARLINK-34951","OBJECT_ID":"2025-184W","EPOCH":"2025-12-15T17:04:07.311072","MEAN_MOTION":15.05652404,"ECCENTRICITY":9.91e-5,"INCLINATION":97.6038,"RA_OF_ASC_NODE":39.8658,"ARG_OF_PERICENTER":91.6499,"MEAN_ANOMALY":268.4841,"EPHEMERIS_TYPE":0,"CLASSIFICATION_TYPE":"U","NORAD_CAT_ID":65293,"ELEMENT_SET_NO":999,"REV_AT_EPOCH":1866,"BSTAR":0.00018242201,"MEAN_MOTION_DOT":2.573e-5,"MEAN_MOTION_DDOT":0},{"OBJECT_NAME":"STARLINK-34613","OBJECT_ID":"2025-184X","EPOCH":"2025-12-15T20:31:27.990048","MEAN_MOTION":15.0566112,"ECCENTRICITY":5.009e-5,"INCLINATION":97.6046,"RA_OF_ASC_NODE":39.9813,"ARG_OF_PERICENTER":105.0581,"MEAN_ANOMALY":255.0701,"EPHEMERIS_TYPE":0,"CLASSIFICATION_TYPE":"U","NORAD_CAT_ID":65294,"ELEMENT_SET_NO":999,"REV_AT_EPOCH":1868,"BSTAR":4.445009e-5,"MEAN_MOTION_DOT":5.81e-6,"MEAN_MOTION_DDOT":0},{"OBJECT_NAME":"STARLINK-34834","OBJECT_ID":"2025-184Y","EPOCH":"2025-12-15T20:59:22.705440","MEAN_MOTION":15.0565239,"ECCENTRICITY":0.00011147,"INCLINATION":97.6061,"RA_OF_ASC_NODE":39.9563,"ARG_OF_PERICENTER":93.7845,"MEAN_ANOMALY":266.3509,"EPHEMERIS_TYPE":0,"CLASSIFICATION_TYPE":"U","NORAD_CAT_ID":65295,"ELEMENT_SET_NO":999,"REV_AT_EPOCH":1868,"BSTAR":0.00021034105,"MEAN_MOTION_DOT":2.976e-5,"MEAN_MOTION_DDOT":0},{"OBJECT_NAME":"STARLINK-34872","OBJECT_ID":"2025-184Z","EPOCH":"2025-12-15T20:43:25.857408","MEAN_MOTION":15.05653992,"ECCENTRICITY":0.00013675,"INCLINATION":97.605,"RA_OF_ASC_NODE":39.9694,"ARG_OF_PERICENTER":93.2736,"MEAN_ANOMALY":266.8647,"EPHEMERIS_TYPE":0,"CLASSIFICATION_TYPE":"U","NORAD_CAT_ID":65296,"ELEMENT_SET_NO":999,"REV_AT_EPOCH":1868,"BSTAR":0.00023647255,"MEAN_MOTION_DOT":3.353e-5,"MEAN_MOTION_DDOT":0},{"OBJECT_NAME":"STARLINK-34899","OBJECT_ID":"2025-189A","EPOCH":"2025-12-15T22:21:48.352032","MEAN_MOTION":15.30221635,"ECCENTRICITY":0.00012237,"INCLINATION":53.1583,"RA_OF_ASC_NODE":235.7352,"ARG_OF_PERICENTER":71.3655,"MEAN_ANOMALY":288.7478,"EPHEMERIS_TYPE":0,"CLASSIFICATION_TYPE":"U","NORAD_CAT_ID":65323,"ELEMENT_SET_NO":999,"REV_AT_EPOCH":1828,"BSTAR":0.0006750379,"MEAN_MOTION_DOT":0.000197,"MEAN_MOTION_DDOT":0},{"OBJECT_NAME":"STARLINK-34196","OBJECT_ID":"2025-189B","EPOCH":"2025-12-15T23:36:07.473312","MEAN_MOTION":15.30217245,"ECCENTRICITY":0.00019441,"INCLINATION":53.157,"RA_OF_ASC_NODE":235.3646,"ARG_OF_PERICENTER":94.1363,"MEAN_ANOMALY":265.986,"EPHEMERIS_TYPE":0,"CLASSIFICATION_TYPE":"U","NORAD_CAT_ID":65324,"ELEMENT_SET_NO":999,"REV_AT_EPOCH":1824,"BSTAR":0.00075244152,"MEAN_MOTION_DOT":0.00022004,"MEAN_MOTION_DDOT":0},{"OBJECT_NAME":"STARLINK-34911","OBJECT_ID":"2025-189C","EPOCH":"2025-12-15T21:24:12.838464","MEAN_MOTION":15.30208476,"ECCENTRICITY":0.0001298,"INCLINATION":53.16,"RA_OF_ASC_NODE":236.2162,"ARG_OF_PERICENTER":92.2805,"MEAN_ANOMALY":267.8344,"EPHEMERIS_TYPE":0,"CLASSIFICATION_TYPE":"U","NORAD_CAT_ID":65325,"ELEMENT_SET_NO":999,"REV_AT_EPOCH":1827,"BSTAR":0.00058578486,"MEAN_MOTION_DOT":0.00017034,"MEAN_MOTION_DDOT":0},{"OBJECT_NAME":"STARLINK-34902","OBJECT_ID":"2025-189D","EPOCH":"2025-12-15T22:41:32.978112","MEAN_MOTION":15.30229259,"ECCENTRICITY":0.00010426,"INCLINATION":53.16,"RA_OF_ASC_NODE":235.8394,"ARG_OF_PERICENTER":83.4696,"MEAN_ANOMALY":276.6424,"EPHEMERIS_TYPE":0,"CLASSIFICATION_TYPE":"U","NORAD_CAT_ID":65326,"ELEMENT_SET_NO":999,"REV_AT_EPOCH":1828,"BSTAR":0.00088376447,"MEAN_MOTION_DOT":0.0002593,"MEAN_MOTION_DDOT":0},{"OBJECT_NAME":"STARLINK-34880","OBJECT_ID":"2025-189E","EPOCH":"2025-12-15T22:44:36.398400","MEAN_MOTION":15.30222566,"ECCENTRICITY":0.00015443,"INCLINATION":53.1597,"RA_OF_ASC_NODE":235.857,"ARG_OF_PERICENTER":68.0089,"MEAN_ANOMALY":292.1075,"EPHEMERIS_TYPE":0,"CLASSIFICATION_TYPE":"U","NORAD_CAT_ID":65327,"ELEMENT_SET_NO":999,"REV_AT_EPOCH":1828,"BSTAR":0.0006819485,"MEAN_MOTION_DOT":0.00019906,"MEAN_MOTION_DDOT":0},{"OBJECT_NAME":"STARLINK-34885","OBJECT_ID":"2025-189F","EPOCH":"2025-12-15T22:32:26.590560","MEAN_MOTION":15.30226514,"ECCENTRICITY":0.00017964,"INCLINATION":53.159,"RA_OF_ASC_NODE":235.8008,"ARG_OF_PERICENTER":62.5819,"MEAN_ANOMALY":297.5364,"EPHEMERIS_TYPE":0,"CLASSIFICATION_TYPE":"U","NORAD_CAT_ID":65328,"ELEMENT_SET_NO":999,"REV_AT_EPOCH":1822,"BSTAR":0.0006767768,"MEAN_MOTION_DOT":0.00019755,"MEAN_MOTION_DDOT":0},{"OBJECT_NAME":"STARLINK-34908","OBJECT_ID":"2025-189G","EPOCH":"2025-12-15T22:26:21.763968","MEAN_MOTION":15.30223445,"ECCENTRICITY":0.00014876,"INCLINATION":53.1582,"RA_OF_ASC_NODE":235.772,"ARG_OF_PERICENTER":67.3678,"MEAN_ANOMALY":292.748,"EPHEMERIS_TYPE":0,"CLASSIFICATION_TYPE":"U","NORAD_CAT_ID":65329,"ELEMENT_SET_NO":999,"REV_AT_EPOCH":1828,"BSTAR":0.00057180712,"MEAN_MOTION_DOT":0.00016626,"MEAN_MOTION_DDOT":0},{"OBJECT_NAME":"STARLINK-34864","OBJECT_ID":"2025-189H","EPOCH":"2025-12-15T22:17:15.779040","MEAN_MOTION":15.30218438,"ECCENTRICITY":0.00014781,"INCLINATION":53.1571,"RA_OF_ASC_NODE":235.7324,"ARG_OF_PERICENTER":72.8262,"MEAN_ANOMALY":287.2901,"EPHEMERIS_TYPE":0,"CLASSIFICATION_TYPE":"U","NORAD_CAT_ID":65330,"ELEMENT_SET_NO":999,"REV_AT_EPOCH":1828,"BSTAR":0.00072771471,"MEAN_MOTION_DOT":0.00021268,"MEAN_MOTION_DDOT":0},{"OBJECT_NAME":"STARLINK-34918","OBJECT_ID":"2025-189J","EPOCH":"2025-12-15T22:12:41.868576","MEAN_MOTION":15.30221312,"ECCENTRICITY":0.00018448,"INCLINATION":53.1571,"RA_OF_ASC_NODE":235.7078,"ARG_OF_PERICENTER":77.2344,"MEAN_ANOMALY":282.8863,"EPHEMERIS_TYPE":0,"CLASSIFICATION_TYPE":"U","NORAD_CAT_ID":65331,"ELEMENT_SET_NO":999,"REV_AT_EPOCH":1822,"BSTAR":0.00069501435,"MEAN_MOTION_DOT":0.00020295,"MEAN_MOTION_DDOT":0},{"OBJECT_NAME":"STARLINK-33890","OBJECT_ID":"2025-189K","EPOCH":"2025-12-15T22:14:10.026816","MEAN_MOTION":15.30182988,"ECCENTRICITY":0.00012183,"INCLINATION":53.1579,"RA_OF_ASC_NODE":235.7097,"ARG_OF_PERICENTER":91.9353,"MEAN_ANOMALY":268.1788,"EPHEMERIS_TYPE":0,"CLASSIFICATION_TYPE":"U","NORAD_CAT_ID":65332,"ELEMENT_SET_NO":999,"REV_AT_EPOCH":1708,"BSTAR":-0.00071803898,"MEAN_MOTION_DOT":-0.00021553,"MEAN_MOTION_DDOT":0},{"OBJECT_NAME":"STARLINK-34602","OBJECT_ID":"2025-189L","EPOCH":"2025-12-15T23:34:35.710464","MEAN_MOTION":15.30244422,"ECCENTRICITY":0.00010877,"INCLINATION":53.1575,"RA_OF_ASC_NODE":235.3521,"ARG_OF_PERICENTER":100.0673,"MEAN_ANOMALY":260.045,"EPHEMERIS_TYPE":0,"CLASSIFICATION_TYPE":"U","NORAD_CAT_ID":65333,"ELEMENT_SET_NO":999,"REV_AT_EPOCH":1829,"BSTAR":0.0014179114,"MEAN_MOTION_DOT":0.0004193,"MEAN_MOTION_DDOT":0},{"OBJECT_NAME":"STARLINK-34878","OBJECT_ID":"2025-189M","EPOCH":"2025-12-15T23:40:40.382400","MEAN_MOTION":15.30221752,"ECCENTRICITY":0.00014717,"INCLINATION":53.1573,"RA_OF_ASC_NODE":235.387,"ARG_OF_PERICENTER":88.5414,"MEAN_ANOMALY":271.5755,"EPHEMERIS_TYPE":0,"CLASSIFICATION_TYPE":"U","NORAD_CAT_ID":65334,"ELEMENT_SET_NO":999,"REV_AT_EPOCH":1829,"BSTAR":0.00068184001,"MEAN_MOTION_DOT":0.00019903,"MEAN_MOTION_DDOT":0},{"OBJECT_NAME":"STARLINK-34874","OBJECT_ID":"2025-189N","EPOCH":"2025-12-15T23:07:23.814912","MEAN_MOTION":15.302337,"ECCENTRICITY":0.00017171,"INCLINATION":53.158,"RA_OF_ASC_NODE":235.9416,"ARG_OF_PERICENTER":72.6606,"MEAN_ANOMALY":287.4582,"EPHEMERIS_TYPE":0,"CLASSIFICATION_TYPE":"U","NORAD_CAT_ID":65335,"ELEMENT_SET_NO":999,"REV_AT_EPOCH":1828,"BSTAR":0.00081343314,"MEAN_MOTION_DOT":0.00023835,"MEAN_MOTION_DDOT":0},{"OBJECT_NAME":"STARLINK-34835","OBJECT_ID":"2025-189P","EPOCH":"2025-12-15T23:11:57.664896","MEAN_MOTION":15.30223286,"ECCENTRICITY":0.00013313,"INCLINATION":53.1581,"RA_OF_ASC_NODE":235.9701,"ARG_OF_PERICENTER":98.8637,"MEAN_ANOMALY":261.2515,"EPHEMERIS_TYPE":0,"CLASSIFICATION_TYPE":"U","NORAD_CAT_ID":65336,"ELEMENT_SET_NO":999,"REV_AT_EPOCH":1828,"BSTAR":0.00069106537,"MEAN_MOTION_DOT":0.00020179,"MEAN_MOTION_DDOT":0},{"OBJECT_NAME":"STARLINK-34854","OBJECT_ID":"2025-189Q","EPOCH":"2025-12-15T23:43:42.974112","MEAN_MOTION":15.3022259,"ECCENTRICITY":0.00013808,"INCLINATION":53.1576,"RA_OF_ASC_NODE":235.3952,"ARG_OF_PERICENTER":90.2911,"MEAN_ANOMALY":269.8248,"EPHEMERIS_TYPE":0,"CLASSIFICATION_TYPE":"U","NORAD_CAT_ID":65337,"ELEMENT_SET_NO":999,"REV_AT_EPOCH":1823,"BSTAR":0.0007294059,"MEAN_MOTION_DOT":0.00021321,"MEAN_MOTION_DDOT":0},{"OBJECT_NAME":"STARLINK-34751","OBJECT_ID":"2025-189R","EPOCH":"2025-12-15T22:18:46.353024","MEAN_MOTION":15.30222215,"ECCENTRICITY":0.00018944,"INCLINATION":53.1583,"RA_OF_ASC_NODE":235.7349,"ARG_OF_PERICENTER":75.3565,"MEAN_ANOMALY":284.7646,"EPHEMERIS_TYPE":0,"CLASSIFICATION_TYPE":"U","NORAD_CAT_ID":65338,"ELEMENT_SET_NO":999,"REV_AT_EPOCH":1828,"BSTAR":0.00068237262,"MEAN_MOTION_DOT":0.00019919,"MEAN_MOTION_DDOT":0},{"OBJECT_NAME":"STARLINK-34777","OBJECT_ID":"2025-189S","EPOCH":"2025-12-15T22:40:01.793280","MEAN_MOTION":15.302042,"ECCENTRICITY":9.827e-5,"INCLINATION":53.1594,"RA_OF_ASC_NODE":235.8298,"ARG_OF_PERICENTER":94.8046,"MEAN_ANOMALY":265.3067,"EPHEMERIS_TYPE":0,"CLASSIFICATION_TYPE":"U","NORAD_CAT_ID":65339,"ELEMENT_SET_NO":999,"REV_AT_EPOCH":1829,"BSTAR":0.00024369407,"MEAN_MOTION_DOT":6.866e-5,"MEAN_MOTION_DDOT":0},{"OBJECT_NAME":"STARLINK-35020","OBJECT_ID":"2025-189T","EPOCH":"2025-12-15T21:52:56.099424","MEAN_MOTION":15.30235332,"ECCENTRICITY":0.00014452,"INCLINATION":53.1573,"RA_OF_ASC_NODE":235.6247,"ARG_OF_PERICENTER":74.6621,"MEAN_ANOMALY":285.454,"EPHEMERIS_TYPE":0,"CLASSIFICATION_TYPE":"U","NORAD_CAT_ID":65340,"ELEMENT_SET_NO":999,"REV_AT_EPOCH":1823,"BSTAR":0.00083322309,"MEAN_MOTION_DOT":0.00024427,"MEAN_MOTION_DDOT":0}]
